ORBCOMM FM05 [-]        
1 25117U 97084F   23350.45009427  .00001632  00000+0  53783-3 0  9998
2 25117  45.0155 113.7674 0001648 308.9677  51.1026 14.41854745361307
ORBCOMM FM06 [+]        
1 25118U 97084G   23350.50158318  .00001845  00000+0  60251-3 0  9993
2 25118  45.0148 113.6979 0000814 296.8438 184.6250 14.41822512362221
ORBCOMM FM07 [-]        
1 25119U 97084H   23350.46237349  .00001673  00000+0  55119-3 0  9997
2 25119  45.0141 114.3482 0002480 304.4322  55.6294 14.41764219362214
ORBCOMM FM03 [-]        
1 25158U 98007B   23350.22806667  .00001302  00000+0  53147-3 0  9993
2 25158 107.9746  90.3654 0046224 129.5122 231.0116 14.31590555345402
ORBCOMM FM04 [+]        
1 25159U 98007C   23350.24292357  .00001122  00000+0  46333-3 0  9990
2 25159 107.9730  93.2344 0041634 127.5404 232.9528 14.31851147345577
ORBCOMM FM17 [-]        
1 25413U 98046A   23349.93345227  .00000774  00000+0  33369-3 0  9992
2 25413  44.9963 324.4462 0003748 320.0249  40.0321 14.32608717324513
ORBCOMM FM18 [-]        
1 25414U 98046B   23349.85265260  .00001079  00000+0  42284-3 0  9997
2 25414  44.9943 254.9305 0005021  27.3336 332.7775 14.35199904325415
ORBCOMM FM19 [+]        
1 25415U 98046C   23349.89544226  .00000907  00000+0  36426-3 0  9994
2 25415  44.9952 255.9501 0004009  17.0025 103.9697 14.35053670325411
